start=new Date('2021-11-29T00:00:00.000Z').valueOf();
sats=[{"MEAN_ANOMALY":"302.2609","RA_OF_ASC_NODE":"32.9294","MEAN_MOTION_DOT":"-0.00000193","LAUNCH_DATE":"2021-03-11","COUNTRY_CODE":"US","ECCENTRICITY":"0.00016150","DECAY_DATE":null,"TLE_LINE1":"1 47790U 21018D   21332.86419474 -.00000193  00000-0  59150-5 0  9992","FILE":"3226391","EPHEMERIS_TYPE":"0","CENTER_NAME":"EARTH","TIME_SYSTEM":"UTC","INCLINATION":"53.0570","EPOCH":"2021-11-28T20:44:26.425536","OBJECT_NAME":"STARLINK-2319","SEMIMAJOR_AXIS":"6925.370","TLE_LINE2":"2 47790  53.0570  32.9294 0001615  57.8536 302.2609 15.06393058 41620","NORAD_CAT_ID":"47790","OBJECT_TYPE":"PAYLOAD","MEAN_MOTION":"15.06393058","OBJECT_ID":"2021-018D","CLASSIFICATION_TYPE":"U","PERIOD":"95.593","MEAN_ELEMENT_THEORY":"SGP4","APOAPSIS":"548.353","REV_AT_EPOCH":"4162","ELEMENT_SET_NO":"999","GP_ID":"190686999","BSTAR":"0.00000591500000","RCS_SIZE":"LARGE","PERIAPSIS":"546.116","SITE":"AFETR","MEAN_MOTION_DDOT":"0.0000000000000","ARG_OF_PERICENTER":"57.8536","REF_FRAME":"TEME"},{"ELEMENT_SET_NO":"999","GP_ID":"190685749","REV_AT_EPOCH":"4117","RCS_SIZE":"LARGE","BSTAR":"-0.00001874900000","SITE":"AFETR","MEAN_MOTION_DDOT":"0.0000000000000","ARG_OF_PERICENTER":"76.9597","REF_FRAME":"TEME","PERIAPSIS":"546.425","NORAD_CAT_ID":"47791","OBJECT_TYPE":"PAYLOAD","CLASSIFICATION_TYPE":"U","MEAN_MOTION":"15.06400625","OBJECT_ID":"2021-018E","APOAPSIS":"547.998","PERIOD":"95.592","MEAN_ELEMENT_THEORY":"SGP4","CENTER_NAME":"EARTH","EPHEMERIS_TYPE":"0","EPOCH":"2021-11-28T16:25:40.779264","OBJECT_NAME":"STARLINK-2322","TIME_SYSTEM":"UTC","INCLINATION":"53.0587","TLE_LINE2":"2 47791  53.0587  63.7374 0001136  76.9597 283.1519 15.06400625 41173","SEMIMAJOR_AXIS":"6925.347","MEAN_ANOMALY":"283.1519","RA_OF_ASC_NODE":"63.7374","COUNTRY_CODE":"US","ECCENTRICITY":"0.00011360","LAUNCH_DATE":"2021-03-11","MEAN_MOTION_DOT":"-0.00000561","TLE_LINE1":"1 47791U 21018E   21332.68449976 -.00000561  00000-0 -18749-4 0  9991","DECAY_DATE":null,"FILE":"3226391"},{"MEAN_MOTION":"15.06397129","OBJECT_ID":"2021-018F","CLASSIFICATION_TYPE":"U","PERIOD":"95.592","MEAN_ELEMENT_THEORY":"SGP4","APOAPSIS":"548.037","NORAD_CAT_ID":"47792","OBJECT_TYPE":"PAYLOAD","BSTAR":"0.00005088100000","RCS_SIZE":"LARGE","PERIAPSIS":"546.408","MEAN_MOTION_DDOT":"0.0000000000000","SITE":"AFETR","ARG_OF_PERICENTER":"67.4746","REF_FRAME":"TEME","REV_AT_EPOCH":"4148","ELEMENT_SET_NO":"999","GP_ID":"190685999","DECAY_DATE":null,"TLE_LINE1":"1 47792U 21018F   21332.89644217  .00000477  00000-0  50881-4 0  9997","FILE":"3226391","MEAN_ANOMALY":"292.6367","RA_OF_ASC_NODE":"42.7858","LAUNCH_DATE":"2021-03-11","MEAN_MOTION_DOT":"0.00000477","COUNTRY_CODE":"US","ECCENTRICITY":"0.00011760","SEMIMAJOR_AXIS":"6925.357","TLE_LINE2":"2 47792  53.0577  42.7858 0001176  67.4746 292.6367 15.06397129 41486","EPHEMERIS_TYPE":"0","CENTER_NAME":"EARTH","TIME_SYSTEM":"UTC","INCLINATION":"53.0577","EPOCH":"2021-11-28T21:30:52.603488","OBJECT_NAME":"STARLINK-2334"},{"EPHEMERIS_TYPE":"0","CENTER_NAME":"EARTH","TIME_SYSTEM":"UTC","INCLINATION":"53.0573","OBJECT_NAME":"STARLINK-2338","EPOCH":"2021-11-28T21:52:06.549024","SEMIMAJOR_AXIS":"6925.351","TLE_LINE2":"2 47793  53.0573  42.7074 0001169  78.9451 281.1670 15.06399307 41474","MEAN_ANOMALY":"281.1670","RA_OF_ASC_NODE":"42.7074","LAUNCH_DATE":"2021-03-11","MEAN_MOTION_DOT":"0.00000161","COUNTRY_CODE":"US","ECCENTRICITY":"0.00011690","DECAY_DATE":null,"TLE_LINE1":"1 47793U 21018G   21332.91118691  .00000161  00000-0  29684-4 0  9990","FILE":"3226391","REV_AT_EPOCH":"4147","ELEMENT_SET_NO":"999","GP_ID":"190686251","BSTAR":"0.00002968400000","RCS_SIZE":"LARGE","PERIAPSIS":"546.406","SITE":"AFETR","MEAN_MOTION_DDOT":"0.0000000000000","ARG_OF_PERICENTER":"78.9451","REF_FRAME":"TEME","NORAD_CAT_ID":"47793","OBJECT_TYPE":"PAYLOAD","MEAN_MOTION":"15.06399307","OBJECT_ID":"2021-018G","CLASSIFICATION_TYPE":"U","PERIOD":"95.592","MEAN_ELEMENT_THEORY":"SGP4","APOAPSIS":"548.025"},{"MEAN_ANOMALY":"287.7746","RA_OF_ASC_NODE":"42.7072","LAUNCH_DATE":"2021-03-11","MEAN_MOTION_DOT":"-0.00000015","COUNTRY_CODE":"US","ECCENTRICITY":"0.00011260","DECAY_DATE":null,"TLE_LINE1":"1 47794U 21018H   21332.91486896 -.00000015  00000-0  17884-4 0  9994","FILE":"3226391","EPHEMERIS_TYPE":"0","CENTER_NAME":"EARTH","TIME_SYSTEM":"UTC","INCLINATION":"53.0559","OBJECT_NAME":"STARLINK-2341","EPOCH":"2021-11-28T21:57:24.678144","SEMIMAJOR_AXIS":"6925.349","TLE_LINE2":"2 47794  53.0559  42.7072 0001126  72.3366 287.7746 15.06399822 41482","NORAD_CAT_ID":"47794","OBJECT_TYPE":"PAYLOAD","MEAN_MOTION":"15.06399822","OBJECT_ID":"2021-018H","CLASSIFICATION_TYPE":"U","PERIOD":"95.592","MEAN_ELEMENT_THEORY":"SGP4","APOAPSIS":"547.994","REV_AT_EPOCH":"4148","ELEMENT_SET_NO":"999","GP_ID":"190686500","BSTAR":"0.00001788400000","RCS_SIZE":"LARGE","PERIAPSIS":"546.434","MEAN_MOTION_DDOT":"0.0000000000000","SITE":"AFETR","ARG_OF_PERICENTER":"72.3366","REF_FRAME":"TEME"},{"COUNTRY_CODE":"US","ECCENTRICITY":"0.00011080","LAUNCH_DATE":"2021-03-11","MEAN_MOTION_DOT":"0.00000413","RA_OF_ASC_NODE":"42.7455","MEAN_ANOMALY":"293.0173","FILE":"3226391","TLE_LINE1":"1 47795U 21018J   21332.90381995  .00000413  00000-0  46637-4 0  9997","DECAY_DATE":null,"OBJECT_NAME":"STARLINK-2347","EPOCH":"2021-11-28T21:41:30.043680","INCLINATION":"53.0569","TIME_SYSTEM":"UTC","CENTER_NAME":"EARTH","EPHEMERIS_TYPE":"0","TLE_LINE2":"2 47795  53.0569  42.7455 0001108  67.0933 293.0173 15.06394687 41534","SEMIMAJOR_AXIS":"6925.365","OBJECT_TYPE":"PAYLOAD","NORAD_CAT_ID":"47795","APOAPSIS":"547.997","MEAN_ELEMENT_THEORY":"SGP4","PERIOD":"95.592","CLASSIFICATION_TYPE":"U","OBJECT_ID":"2021-018J","MEAN_MOTION":"15.06394687","GP_ID":"190685250","ELEMENT_SET_NO":"999","REV_AT_EPOCH":"4153","REF_FRAME":"TEME","SITE":"AFETR","ARG_OF_PERICENTER":"67.0933","MEAN_MOTION_DDOT":"0.0000000000000","PERIAPSIS":"546.463","RCS_SIZE":"LARGE","BSTAR":"0.00004663700000"},{"OBJECT_TYPE":"PAYLOAD","NORAD_CAT_ID":"47796","APOAPSIS":"548.156","PERIOD":"95.593","MEAN_ELEMENT_THEORY":"SGP4","CLASSIFICATION_TYPE":"U","OBJECT_ID":"2021-018K","MEAN_MOTION":"15.06394282","GP_ID":"190685500","ELEMENT_SET_NO":"999","REV_AT_EPOCH":"4148","REF_FRAME":"TEME","SITE":"AFETR","MEAN_MOTION_DDOT":"0.0000000000000","ARG_OF_PERICENTER":"68.5476","PERIAPSIS":"546.306","RCS_SIZE":"LARGE","BSTAR":"0.00002766600000","ECCENTRICITY":"0.00013360","COUNTRY_CODE":"US","MEAN_MOTION_DOT":"0.00000131","LAUNCH_DATE":"2021-03-11","RA_OF_ASC_NODE":"42.6882","MEAN_ANOMALY":"291.5656","FILE":"3226391","TLE_LINE1":"1 47796U 21018K   21332.91856232  .00000131  00000-0  27666-4 0  9998","DECAY_DATE":null,"EPOCH":"2021-11-28T22:02:43.784448","OBJECT_NAME":"STARLINK-2373","INCLINATION":"53.0563","TIME_SYSTEM":"UTC","CENTER_NAME":"EARTH","EPHEMERIS_TYPE":"0","TLE_LINE2":"2 47796  53.0563  42.6882 0001336  68.5476 291.5656 15.06394282 41487","SEMIMAJOR_AXIS":"6925.366"},{"COUNTRY_CODE":"US","ECCENTRICITY":"0.00010810","LAUNCH_DATE":"2021-03-11","MEAN_MOTION_DOT":"-0.00001271","MEAN_ANOMALY":"277.7752","RA_OF_ASC_NODE":"68.6952","FILE":"3226391","TLE_LINE1":"1 47797U 21018L   21332.68956720 -.00001271  00000-0 -66479-4 0  9999","DECAY_DATE":null,"EPOCH":"2021-11-28T16:32:58.606080","OBJECT_NAME":"STARLINK-2377","TIME_SYSTEM":"UTC","INCLINATION":"53.0563","CENTER_NAME":"EARTH","EPHEMERIS_TYPE":"0","TLE_LINE2":"2 47797  53.0563  68.6952 0001081  82.3359 277.7752 15.06402663 41098","SEMIMAJOR_AXIS":"6925.340","OBJECT_TYPE":"PAYLOAD","NORAD_CAT_ID":"47797","APOAPSIS":"547.954","PERIOD":"95.592","MEAN_ELEMENT_THEORY":"SGP4","CLASSIFICATION_TYPE":"U","MEAN_MOTION":"15.06402663","OBJECT_ID":"2021-018L","ELEMENT_SET_NO":"999","GP_ID":"190686751","REV_AT_EPOCH":"4109","ARG_OF_PERICENTER":"82.3359","SITE":"AFETR","MEAN_MOTION_DDOT":"0.0000000000000","REF_FRAME":"TEME","PERIAPSIS":"546.457","RCS_SIZE":"MEDIUM","BSTAR":"-0.00006647900000"},{"TIME_SYSTEM":"UTC","INCLINATION":"53.0569","EPOCH":"2021-11-28T14:20:57.238944","OBJECT_NAME":"STARLINK-2379","EPHEMERIS_TYPE":"0","CENTER_NAME":"EARTH","SEMIMAJOR_AXIS":"6925.369","TLE_LINE2":"2 47798  53.0569  44.1143 0001067  72.3367 287.7739 15.06393351 41435","LAUNCH_DATE":"2021-03-11","MEAN_MOTION_DOT":"-0.00000502","COUNTRY_CODE":"US","ECCENTRICITY":"0.00010670","MEAN_ANOMALY":"287.7739","RA_OF_ASC_NODE":"44.1143","FILE":"3226391","DECAY_DATE":null,"TLE_LINE1":"1 47798U 21018M   21332.59788471 -.00000502  00000-0 -14835-4 0  9991","REV_AT_EPOCH":"4143","ELEMENT_SET_NO":"999","GP_ID":"190687000","PERIAPSIS":"546.495","MEAN_MOTION_DDOT":"0.0000000000000","SITE":"AFETR","ARG_OF_PERICENTER":"72.3367","REF_FRAME":"TEME","BSTAR":"-0.00001483500000","RCS_SIZE":"LARGE","OBJECT_TYPE":"PAYLOAD","NORAD_CAT_ID":"47798","MEAN_ELEMENT_THEORY":"SGP4","PERIOD":"95.593","APOAPSIS":"547.973","MEAN_MOTION":"15.06393351","OBJECT_ID":"2021-018M","CLASSIFICATION_TYPE":"U"},{"SEMIMAJOR_AXIS":"6925.371","TLE_LINE2":"2 47799  53.0557  42.6579 0001239  76.2048 283.9079 15.06392630 41477","TIME_SYSTEM":"UTC","INCLINATION":"53.0557","EPOCH":"2021-11-28T22:13:20.837568","OBJECT_NAME":"STARLINK-2380","EPHEMERIS_TYPE":"0","CENTER_NAME":"EARTH","FILE":"3226391","DECAY_DATE":null,"TLE_LINE1":"1 47799U 21018N   21332.92593562  .00000921  00000-0  80714-4 0  9996","LAUNCH_DATE":"2021-03-11","MEAN_MOTION_DOT":"0.00000921","COUNTRY_CODE":"US","ECCENTRICITY":"0.00012390","MEAN_ANOMALY":"283.9079","RA_OF_ASC_NODE":"42.6579","PERIAPSIS":"546.378","SITE":"AFETR","MEAN_MOTION_DDOT":"0.0000000000000","ARG_OF_PERICENTER":"76.2048","REF_FRAME":"TEME","BSTAR":"0.00008071400000","RCS_SIZE":"LARGE","REV_AT_EPOCH":"4147","ELEMENT_SET_NO":"999","GP_ID":"190685750","PERIOD":"95.593","MEAN_ELEMENT_THEORY":"SGP4","APOAPSIS":"548.094","MEAN_MOTION":"15.06392630","OBJECT_ID":"2021-018N","CLASSIFICATION_TYPE":"U","OBJECT_TYPE":"PAYLOAD","NORAD_CAT_ID":"47799"}];
